GLOBALSTAR M094         
1 39074U 13005C   24217.91573864 -.00000071  00000+0  18023-3 0  9996
2 39074  51.9963  65.0700 0000608  55.7340 304.3584 12.62266544532436
GLOBALSTAR M096         
1 39075U 13005D   24217.84981949 -.00000072  00000+0  17501-3 0  9997
2 39075  52.0069 113.5394 0000430  21.7031 338.3854 12.62268248531346
GLOBALSTAR M095         
1 39077U 13005F   24217.69129642 -.00000122  00000+0 -10261-3 0  9999
2 39077  51.9776 196.3144 0000483 240.1065 119.9753 12.62262834529809
GLOBALSTAR M087         
1 52888U 22064A   24217.90271218 -.00000064  00000+0  12300-3 0  9990
2 52888  51.9769  38.5113 0010030 125.0287 235.1556 13.37580323104041
